STARLINK-35833          
1 66542U 25265AC  25330.91673611 -.01407764  00000+0 -50292-2 0  9990
2 66542  43.0013 148.9696 0001867 277.3888  89.0600 15.90556004  2453
STARLINK-35315          
1 66543U 25265AD  25330.91673611 -.01403195  00000+0 -49991-2 0  9999
2 66543  43.0013 148.9645 0001882 277.4887  90.7777 15.90599732  2342
STARLINK-35728          
1 66544U 25265AE  25330.91673611 -.01417028  00000+0 -50423-2 0  9992
2 66544  43.0013 148.9606 0001851 275.7536  94.1878 15.90651041  2452
SHIJIAN-30A             
1 66545U 25266A   25330.86347088  .00011727  00000+0  62915-3 0  9997
2 66545  51.7983  47.2197 0012845 299.3816  60.5877 15.15296959  1173
SHIJIAN-30B             
1 66546U 25266B   25330.86466431  .00010147  00000+0  54871-3 0  9999
2 66546  51.7967  47.2266 0010352 300.5765  59.4189 15.15189935  1170
SHIJIAN-30C             
1 66547U 25266C   25330.86563619  .00009423  00000+0  50973-3 0  9990
2 66547  51.7977  47.2330 0011243 293.0336  66.9455 15.15253055  1178
CZ-2C R/B               
1 66548U 25266D   25330.53247299  .00013361  00000+0  42198-3 0  9994
2 66548  52.0557  48.4640 0085233 117.7281 243.2383 15.29662208  1130
GLOBAL-33               
1 66554U 25267A   25330.94538635  .00012160  00000+0  40358-3 0  9996
2 66554  42.0191 148.1409 0006269 305.5234  54.5018 15.31096501   988
ELECTRON KICK STAGE R/B 
1 66555U 25267B   25330.94286111  .00023369  00000+0  75048-3 0  9993
2 66555  42.0177 148.1253 0007974 304.2194  55.7888 15.31779023   980
ELECTRON R/B            
1 66556U 25267C   25330.82194579  .05297981  81906-5  11744-2 0  9997
2 66556  42.0330 145.3151 0117410 308.1787  50.8551 16.13459608  1008
TJS-21                  
1 66586U 25269A   25326.02704417  .00003197  00000+0  53570-3 0  9990
2 66586  51.0366 174.7096 7517987 225.0489  41.6572  2.00992210    24
CZ-3B R/B               
1 66587U 25269B   25327.51390516  .00010320 -91384-6  49597-3 0  9990
2 66587  51.3768 174.0599 7525341 225.2938  41.2116  2.01516013    67
